ONEWEB-0512             
1 54130U 22138T   25300.39914290  .00000039  00000+0  65824-4 0  9996
2 54130  87.9236 351.2957 0001815 110.5298 249.6030 13.19725573146102
ONEWEB-0513             
1 54131U 22138U   25300.95591736  .00000053  00000+0  98824-4 0  9997
2 54131  87.9258 351.1460 0001509 115.6965 244.4324 13.20318074146073
ONEWEB-0514             
1 54132U 22138V   25300.56657316  .00000018  00000+0  11661-4 0  9997
2 54132  87.9245 351.2430 0001826  94.4872 265.6470 13.19724638146141
ONEWEB-0515             
1 54133U 22138W   25300.46976637  .00000060  00000+0  11537-3 0  9995
2 54133  87.9202 320.8331 0002577  79.1809 280.9614 13.20771227148589
ONEWEB-0516             
1 54134U 22138X   25300.54129944  .00000020  00000+0  18778-4 0  9997
2 54134  87.9232 351.2726 0001962 101.1205 259.0148 13.19725620146145
ONEWEB-0517             
1 54135U 22138Y   25300.89984701  .00000023  00000+0  24830-4 0  9995
2 54135  87.9250 351.1733 0001575  96.4221 263.7091 13.19724048146194
ONEWEB-0518             
1 54136U 22138Z   25300.84298784  .00000057  00000+0  11059-3 0  9995
2 54136  87.9236 351.2144 0001887 103.4488 256.6855 13.19724655146188
ONEWEB-0519             
1 54137U 22138AA  25300.56499187  .00000072  00000+0  14853-3 0  9997
2 54137  87.9253 351.2312 0001672  98.3943 261.7380 13.19724316146156
